start=new Date('2023-04-03T00:00:00.000Z').valueOf();
sats=[{"PERIAPSIS":"546.694","APOAPSIS":"547.804","EPOCH":"2023-04-02T18:43:44.135616","RA_OF_ASC_NODE":"258.6061","CLASSIFICATION_TYPE":"U","ARG_OF_PERICENTER":"48.7920","FILE":"3878419","GP_ID":"229348707","COUNTRY_CODE":"US","MEAN_MOTION_DOT":"0.00026233","MEAN_MOTION_DDOT":"0.0000000000000","MEAN_MOTION":"15.06388484","MEAN_ELEMENT_THEORY":"SGP4","SITE":"AFETR","INCLINATION":"53.0523","REF_FRAME":"TEME","CENTER_NAME":"EARTH","LAUNCH_DATE":"2020-08-07","MEAN_ANOMALY":"311.3138","TIME_SYSTEM":"UTC","NORAD_CAT_ID":"46035","RCS_SIZE":"LARGE","OBJECT_NAME":"STARLINK-1558","PERIOD":"95.593","SEMIMAJOR_AXIS":"6925.384","OBJECT_ID":"2020-055J","EPHEMERIS_TYPE":"0","REV_AT_EPOCH":"14733","TLE_LINE1":"1 46035U 20055J   23092.78037194  .00026233  00000-0  17740-2 0  9992","ECCENTRICITY":"0.00008010","TLE_LINE2":"2 46035  53.0523 258.6061 0000801  48.7920 311.3138 15.06388484147330","ELEMENT_SET_NO":"999","BSTAR":"0.00177400000000","DECAY_DATE":null,"OBJECT_TYPE":"PAYLOAD"},{"CLASSIFICATION_TYPE":"U","RA_OF_ASC_NODE":"258.3689","PERIAPSIS":"546.420","APOAPSIS":"548.094","EPOCH":"2023-04-02T19:58:02.183808","GP_ID":"229348957","COUNTRY_CODE":"US","ARG_OF_PERICENTER":"77.6403","FILE":"3878419","SITE":"AFETR","MEAN_MOTION":"15.06385820","MEAN_MOTION_DOT":"0.00019213","MEAN_MOTION_DDOT":"0.0000000000000","MEAN_ELEMENT_THEORY":"SGP4","REF_FRAME":"TEME","CENTER_NAME":"EARTH","INCLINATION":"53.0525","MEAN_ANOMALY":"282.4721","NORAD_CAT_ID":"46036","TIME_SYSTEM":"UTC","LAUNCH_DATE":"2020-08-07","SEMIMAJOR_AXIS":"6925.392","PERIOD":"95.593","OBJECT_NAME":"STARLINK-1560","RCS_SIZE":"LARGE","TLE_LINE1":"1 46036U 20055K   23092.83196972  .00019213  00000-0  13057-2 0  9996","TLE_LINE2":"2 46036  53.0525 258.3689 0001209  77.6403 282.4721 15.06385820147344","ECCENTRICITY":"0.00012090","OBJECT_ID":"2020-055K","EPHEMERIS_TYPE":"0","REV_AT_EPOCH":"14734","OBJECT_TYPE":"PAYLOAD","DECAY_DATE":null,"ELEMENT_SET_NO":"999","BSTAR":"0.00130570000000"},{"OBJECT_ID":"2020-055L","REV_AT_EPOCH":"14732","EPHEMERIS_TYPE":"0","TLE_LINE1":"1 46037U 20055L   23092.76193702  .00000173  00000-0  30486-4 0  9999","ECCENTRICITY":"0.00011100","TLE_LINE2":"2 46037  53.0524 258.6913 0001110  91.2972 268.8145 15.06393387147324","ELEMENT_SET_NO":"999","BSTAR":"0.00003048600000","DECAY_DATE":null,"OBJECT_TYPE":"PAYLOAD","LAUNCH_DATE":"2020-08-07","MEAN_ANOMALY":"268.8145","TIME_SYSTEM":"UTC","NORAD_CAT_ID":"46037","RCS_SIZE":"LARGE","OBJECT_NAME":"STARLINK-1565","PERIOD":"95.593","SEMIMAJOR_AXIS":"6925.369","MEAN_MOTION_DDOT":"0.0000000000000","MEAN_MOTION_DOT":"0.00000173","MEAN_MOTION":"15.06393387","MEAN_ELEMENT_THEORY":"SGP4","SITE":"AFETR","INCLINATION":"53.0524","REF_FRAME":"TEME","CENTER_NAME":"EARTH","PERIAPSIS":"546.465","EPOCH":"2023-04-02T18:17:11.358528","APOAPSIS":"548.003","RA_OF_ASC_NODE":"258.6913","CLASSIFICATION_TYPE":"U","ARG_OF_PERICENTER":"91.2972","FILE":"3878419","GP_ID":"229349686","COUNTRY_CODE":"US"},{"MEAN_MOTION_DOT":"0.00019864","MEAN_MOTION_DDOT":"0.0000000000000","MEAN_MOTION":"15.06424268","MEAN_ELEMENT_THEORY":"SGP4","SITE":"AFETR","INCLINATION":"53.0532","REF_FRAME":"TEME","CENTER_NAME":"EARTH","PERIAPSIS":"546.097","EPOCH":"2023-04-02T18:38:22.041600","APOAPSIS":"548.181","RA_OF_ASC_NODE":"258.6224","CLASSIFICATION_TYPE":"U","ARG_OF_PERICENTER":"81.1714","FILE":"3878419","GP_ID":"229347957","COUNTRY_CODE":"US","OBJECT_ID":"2020-055M","REV_AT_EPOCH":"14732","EPHEMERIS_TYPE":"0","TLE_LINE1":"1 46038U 20055M   23092.77664400  .00019864  00000-0  13478-2 0  9996","ECCENTRICITY":"0.00015050","TLE_LINE2":"2 46038  53.0532 258.6224 0001505  81.1714 278.9445 15.06424268147327","ELEMENT_SET_NO":"999","BSTAR":"0.00134780000000","OBJECT_TYPE":"PAYLOAD","DECAY_DATE":null,"LAUNCH_DATE":"2020-08-07","MEAN_ANOMALY":"278.9445","TIME_SYSTEM":"UTC","NORAD_CAT_ID":"46038","RCS_SIZE":"LARGE","OBJECT_NAME":"STARLINK-1567","SEMIMAJOR_AXIS":"6925.274","PERIOD":"95.591"},{"MEAN_ANOMALY":"290.7070","NORAD_CAT_ID":"46039","TIME_SYSTEM":"UTC","LAUNCH_DATE":"2020-08-07","SEMIMAJOR_AXIS":"6925.423","PERIOD":"95.594","OBJECT_NAME":"STARLINK-1569","RCS_SIZE":"LARGE","TLE_LINE1":"1 46039U 20055N   23092.78404946  .00022682  00000-0  15377-2 0  9997","TLE_LINE2":"2 46039  53.0526 258.5895 0000993  69.4026 290.7070 15.06375873147322","ECCENTRICITY":"0.00009930","OBJECT_ID":"2020-055N","REV_AT_EPOCH":"14732","EPHEMERIS_TYPE":"0","OBJECT_TYPE":"PAYLOAD","DECAY_DATE":null,"ELEMENT_SET_NO":"999","BSTAR":"0.00153770000000","CLASSIFICATION_TYPE":"U","RA_OF_ASC_NODE":"258.5895","PERIAPSIS":"546.600","APOAPSIS":"547.975","EPOCH":"2023-04-02T18:49:01.873344","GP_ID":"229348207","COUNTRY_CODE":"US","ARG_OF_PERICENTER":"69.4026","FILE":"3878419","SITE":"AFETR","MEAN_MOTION":"15.06375873","MEAN_MOTION_DDOT":"0.0000000000000","MEAN_MOTION_DOT":"0.00022682","MEAN_ELEMENT_THEORY":"SGP4","REF_FRAME":"TEME","CENTER_NAME":"EARTH","INCLINATION":"53.0526"},{"OBJECT_ID":"2020-055P","REV_AT_EPOCH":"14728","EPHEMERIS_TYPE":"0","TLE_LINE1":"1 46040U 20055P   23092.74719031  .00023707  00000-0  16058-2 0  9995","TLE_LINE2":"2 46040  53.0525 258.7564 0000864  73.0417 287.0666 15.06383626147280","ECCENTRICITY":"0.00008640","ELEMENT_SET_NO":"999","BSTAR":"0.00160580000000","DECAY_DATE":null,"OBJECT_TYPE":"PAYLOAD","LAUNCH_DATE":"2020-08-07","MEAN_ANOMALY":"287.0666","NORAD_CAT_ID":"46040","TIME_SYSTEM":"UTC","RCS_SIZE":"LARGE","OBJECT_NAME":"STARLINK-1576","SEMIMAJOR_AXIS":"6925.399","PERIOD":"95.593","MEAN_MOTION":"15.06383626","MEAN_MOTION_DOT":"0.00023707","MEAN_MOTION_DDOT":"0.0000000000000","MEAN_ELEMENT_THEORY":"SGP4","SITE":"AFETR","INCLINATION":"53.0525","REF_FRAME":"TEME","CENTER_NAME":"EARTH","PERIAPSIS":"546.665","EPOCH":"2023-04-02T17:55:57.242784","APOAPSIS":"547.862","CLASSIFICATION_TYPE":"U","RA_OF_ASC_NODE":"258.7564","ARG_OF_PERICENTER":"73.0417","FILE":"3878419","GP_ID":"229349458","COUNTRY_CODE":"US"},{"CENTER_NAME":"EARTH","REF_FRAME":"TEME","INCLINATION":"53.0540","SITE":"AFETR","MEAN_ELEMENT_THEORY":"SGP4","MEAN_MOTION_DDOT":"0.0000000000000","MEAN_MOTION_DOT":"0.00022302","MEAN_MOTION":"15.06392200","COUNTRY_CODE":"US","GP_ID":"229349186","FILE":"3878419","ARG_OF_PERICENTER":"97.9701","RA_OF_ASC_NODE":"258.7922","CLASSIFICATION_TYPE":"U","EPOCH":"2023-04-02T18:11:54.445920","APOAPSIS":"547.966","PERIAPSIS":"546.509","OBJECT_TYPE":"PAYLOAD","DECAY_DATE":null,"BSTAR":"0.00151170000000","ELEMENT_SET_NO":"999","ECCENTRICITY":"0.00010520","TLE_LINE2":"2 46041  53.0540 258.7922 0001052  97.9701 262.1407 15.06392200147293","TLE_LINE1":"1 46041U 20055Q   23092.75826905  .00022302  00000-0  15117-2 0  9991","REV_AT_EPOCH":"14729","EPHEMERIS_TYPE":"0","OBJECT_ID":"2020-055Q","SEMIMAJOR_AXIS":"6925.372","PERIOD":"95.593","RCS_SIZE":"LARGE","OBJECT_NAME":"STARLINK-1580","TIME_SYSTEM":"UTC","NORAD_CAT_ID":"46041","MEAN_ANOMALY":"262.1407","LAUNCH_DATE":"2020-08-07"},{"APOAPSIS":"548.084","EPOCH":"2023-04-02T17:34:43.495968","PERIAPSIS":"546.422","CLASSIFICATION_TYPE":"U","RA_OF_ASC_NODE":"258.8229","FILE":"3878419","ARG_OF_PERICENTER":"78.0824","COUNTRY_CODE":"US","GP_ID":"229348458","MEAN_ELEMENT_THEORY":"SGP4","MEAN_MOTION":"15.06387025","MEAN_MOTION_DDOT":"0.0000000000000","MEAN_MOTION_DOT":"0.00026088","SITE":"AFETR","INCLINATION":"53.0517","CENTER_NAME":"EARTH","REF_FRAME":"TEME","LAUNCH_DATE":"2020-08-07","NORAD_CAT_ID":"46042","TIME_SYSTEM":"UTC","MEAN_ANOMALY":"282.0299","OBJECT_NAME":"STARLINK-1581","RCS_SIZE":"LARGE","PERIOD":"95.593","SEMIMAJOR_AXIS":"6925.388","EPHEMERIS_TYPE":"0","REV_AT_EPOCH":"14728","OBJECT_ID":"2020-055R","TLE_LINE2":"2 46042  53.0517 258.8229 0001200  78.0824 282.0299 15.06387025147288","ECCENTRICITY":"0.00012000","TLE_LINE1":"1 46042U 20055R   23092.73244787  .00026088  00000-0  17644-2 0  9994","BSTAR":"0.00176440000000","ELEMENT_SET_NO":"999","OBJECT_TYPE":"PAYLOAD","DECAY_DATE":null},{"MEAN_ANOMALY":"298.2493","TIME_SYSTEM":"UTC","NORAD_CAT_ID":"46043","LAUNCH_DATE":"2020-08-07","SEMIMAJOR_AXIS":"6925.427","PERIOD":"95.594","OBJECT_NAME":"STARLINK-1582","RCS_SIZE":"LARGE","TLE_LINE1":"1 46043U 20055S   23092.85776338  .00007216  00000-0  50318-3 0  9998","ECCENTRICITY":"0.00012670","TLE_LINE2":"2 46043  53.0531 258.2581 0001267  61.8624 298.2493 15.06374289147330","OBJECT_ID":"2020-055S","REV_AT_EPOCH":"14733","EPHEMERIS_TYPE":"0","DECAY_DATE":null,"OBJECT_TYPE":"PAYLOAD","ELEMENT_SET_NO":"999","BSTAR":"0.00050318000000","RA_OF_ASC_NODE":"258.2581","CLASSIFICATION_TYPE":"U","PERIAPSIS":"546.415","EPOCH":"2023-04-02T20:35:10.756032","APOAPSIS":"548.170","GP_ID":"229348708","COUNTRY_CODE":"US","ARG_OF_PERICENTER":"61.8624","FILE":"3878419","SITE":"AFETR","MEAN_MOTION_DDOT":"0.0000000000000","MEAN_MOTION_DOT":"0.00007216","MEAN_MOTION":"15.06374289","MEAN_ELEMENT_THEORY":"SGP4","REF_FRAME":"TEME","CENTER_NAME":"EARTH","INCLINATION":"53.0531"},{"INCLINATION":"53.0519","REF_FRAME":"TEME","CENTER_NAME":"EARTH","MEAN_MOTION":"15.06381879","MEAN_MOTION_DDOT":"0.0000000000000","MEAN_MOTION_DOT":"0.00025667","MEAN_ELEMENT_THEORY":"SGP4","SITE":"AFETR","ARG_OF_PERICENTER":"57.4075","FILE":"3878419","GP_ID":"229348958","COUNTRY_CODE":"US","PERIAPSIS":"546.612","EPOCH":"2023-04-02T17:43:58.913184","APOAPSIS":"547.926","CLASSIFICATION_TYPE":"U","RA_OF_ASC_NODE":"258.7826","ELEMENT_SET_NO":"999","BSTAR":"0.00173660000000","DECAY_DATE":null,"OBJECT_TYPE":"PAYLOAD","OBJECT_ID":"2020-055T","REV_AT_EPOCH":"14732","EPHEMERIS_TYPE":"0","TLE_LINE1":"1 46044U 20055T   23092.73887631  .00025667  00000-0  17366-2 0  9990","TLE_LINE2":"2 46044  53.0519 258.7826 0000949  57.4075 302.7005 15.06381879147323","ECCENTRICITY":"0.00009490","RCS_SIZE":"LARGE","OBJECT_NAME":"STARLINK-1584","SEMIMAJOR_AXIS":"6925.404","PERIOD":"95.593","LAUNCH_DATE":"2020-08-07","MEAN_ANOMALY":"302.7005","NORAD_CAT_ID":"46044","TIME_SYSTEM":"UTC"}];
